KUIPER-00061            
1 64521U 25134X   25223.07173861  .00036094  00000+0  10187-2 0  9990
2 64521  51.8735  96.5682 0005382 286.7312  73.3084 15.36028930  8259
KUIPER-00062            
1 64522U 25134Y   25222.91668981 -.00174300  00000+0 -76903-2 0  9998
2 64522  51.8812  98.0650 0007252 291.2209 314.8667 15.21999141  8213
KUIPER-00063            
1 64523U 25134Z   25223.25002315 -.00918900  00000+0 -38450-1 0  9996
2 64523  51.8780  95.8660 0003993 233.1917 319.1891 15.25585916  8271
KUIPER-00064            
1 64524U 25134AA  25222.91668981 -.00718937  00000+0 -26066-1 0  9994
2 64524  51.8803  97.1017 0001150 316.3698  30.5742 15.30475131  8533
KUIPER-00065            
1 64525U 25134AB  25222.91668981 -.00032118  00000+0 -15995-2 0  9995
2 64525  51.8821  98.4778 0007659 302.6046  21.2502 15.16894202  8457
KUIPER-00066            
1 64526U 25134AC  25223.25002315 -.00661232  00000+0 -24130-1 0  9992
2 64526  51.8806  95.5369 0001371 241.5873 110.1420 15.30053420  8282
KUIPER-00069            
1 64816U 25151A   25222.45066866  .00024487  00000+0  69706-3 0  9998
2 64816  51.8788 166.1529 0004892 225.0366 135.0224 15.35967401  5048
KUIPER-00070            
1 64817U 25151B   25223.16668981 -.00707595  00000+0 -32043-1 0  9996
2 64817  51.8862 163.5073 0006375 265.4158  82.1994 15.22691653  5137
