<?xml version="1.0" encoding="UTF-8"?>
<ndm xmlns:xsi="http://www.w3.org/2001/XMLSchema-instance" xsi:noNamespaceSchemaLocation="https://sanaregistry.org/r/ndmxml_unqualified/ndmxml-2.0.0-master-2.0.xsd">
<omm id="CCSDS_OMM_VERS" version="2.0">
<header><CREATION_DATE/><ORIGINATOR/></header><body><segment><metadata><OBJECT_NAME>KUIPER-00061</OBJECT_NAME><OBJECT_ID>2025-134X</OBJECT_ID><CENTER_NAME>EARTH</CENTER_NAME><REF_FRAME>TEME</REF_FRAME><TIME_SYSTEM>UTC</TIME_SYSTEM><MEAN_ELEMENT_THEORY>SGP4</MEAN_ELEMENT_THEORY></metadata><data><meanElements><EPOCH>2025-08-11T01:43:18.215904</EPOCH><MEAN_MOTION>15.36028930</MEAN_MOTION><ECCENTRICITY>.0005382</ECCENTRICITY><INCLINATION>51.8735</INCLINATION><RA_OF_ASC_NODE>96.5682</RA_OF_ASC_NODE><ARG_OF_PERICENTER>286.7312</ARG_OF_PERICENTER><MEAN_ANOMALY>73.3084</MEAN_ANOMALY></meanElements><tleParameters><EPHEMERIS_TYPE>0</EPHEMERIS_TYPE><CLASSIFICATION_TYPE>U</CLASSIFICATION_TYPE><NORAD_CAT_ID>64521</NORAD_CAT_ID><ELEMENT_SET_NO>999</ELEMENT_SET_NO><REV_AT_EPOCH>825</REV_AT_EPOCH><BSTAR>.10187E-2</BSTAR><MEAN_MOTION_DOT>.36094E-3</MEAN_MOTION_DOT><MEAN_MOTION_DDOT>0</MEAN_MOTION_DDOT></tleParameters></data></segment></body></omm>
<omm id="CCSDS_OMM_VERS" version="2.0">
<header><CREATION_DATE/><ORIGINATOR/></header><body><segment><metadata><OBJECT_NAME>KUIPER-00062</OBJECT_NAME><OBJECT_ID>2025-134Y</OBJECT_ID><CENTER_NAME>EARTH</CENTER_NAME><REF_FRAME>TEME</REF_FRAME><TIME_SYSTEM>UTC</TIME_SYSTEM><MEAN_ELEMENT_THEORY>SGP4</MEAN_ELEMENT_THEORY></metadata><data><meanElements><EPOCH>2025-08-10T22:00:01.999584</EPOCH><MEAN_MOTION>15.21999141</MEAN_MOTION><ECCENTRICITY>.0007252</ECCENTRICITY><INCLINATION>51.8812</INCLINATION><RA_OF_ASC_NODE>98.0650</RA_OF_ASC_NODE><ARG_OF_PERICENTER>291.2209</ARG_OF_PERICENTER><MEAN_ANOMALY>314.8667</MEAN_ANOMALY></meanElements><tleParameters><EPHEMERIS_TYPE>0</EPHEMERIS_TYPE><CLASSIFICATION_TYPE>U</CLASSIFICATION_TYPE><NORAD_CAT_ID>64522</NORAD_CAT_ID><ELEMENT_SET_NO>999</ELEMENT_SET_NO><REV_AT_EPOCH>821</REV_AT_EPOCH><BSTAR>-.76903E-2</BSTAR><MEAN_MOTION_DOT>-.1743E-2</MEAN_MOTION_DOT><MEAN_MOTION_DDOT>0</MEAN_MOTION_DDOT></tleParameters></data></segment></body></omm>
<omm id="CCSDS_OMM_VERS" version="2.0">
<header><CREATION_DATE/><ORIGINATOR/></header><body><segment><metadata><OBJECT_NAME>KUIPER-00063</OBJECT_NAME><OBJECT_ID>2025-134Z</OBJECT_ID><CENTER_NAME>EARTH</CENTER_NAME><REF_FRAME>TEME</REF_FRAME><TIME_SYSTEM>UTC</TIME_SYSTEM><MEAN_ELEMENT_THEORY>SGP4</MEAN_ELEMENT_THEORY></metadata><data><meanElements><EPOCH>2025-08-11T06:00:02.000160</EPOCH><MEAN_MOTION>15.25585916</MEAN_MOTION><ECCENTRICITY>.0003993</ECCENTRICITY><INCLINATION>51.8780</INCLINATION><RA_OF_ASC_NODE>95.8660</RA_OF_ASC_NODE><ARG_OF_PERICENTER>233.1917</ARG_OF_PERICENTER><MEAN_ANOMALY>319.1891</MEAN_ANOMALY></meanElements><tleParameters><EPHEMERIS_TYPE>0</EPHEMERIS_TYPE><CLASSIFICATION_TYPE>U</CLASSIFICATION_TYPE><NORAD_CAT_ID>64523</NORAD_CAT_ID><ELEMENT_SET_NO>999</ELEMENT_SET_NO><REV_AT_EPOCH>827</REV_AT_EPOCH><BSTAR>-.3845E-1</BSTAR><MEAN_MOTION_DOT>-.9189E-2</MEAN_MOTION_DOT><MEAN_MOTION_DDOT>0</MEAN_MOTION_DDOT></tleParameters></data></segment></body></omm>
<omm id="CCSDS_OMM_VERS" version="2.0">
<header><CREATION_DATE/><ORIGINATOR/></header><body><segment><metadata><OBJECT_NAME>KUIPER-00064</OBJECT_NAME><OBJECT_ID>2025-134AA</OBJECT_ID><CENTER_NAME>EARTH</CENTER_NAME><REF_FRAME>TEME</REF_FRAME><TIME_SYSTEM>UTC</TIME_SYSTEM><MEAN_ELEMENT_THEORY>SGP4</MEAN_ELEMENT_THEORY></metadata><data><meanElements><EPOCH>2025-08-10T22:00:01.999584</EPOCH><MEAN_MOTION>15.30475131</MEAN_MOTION><ECCENTRICITY>.000115</ECCENTRICITY><INCLINATION>51.8803</INCLINATION><RA_OF_ASC_NODE>97.1017</RA_OF_ASC_NODE><ARG_OF_PERICENTER>316.3698</ARG_OF_PERICENTER><MEAN_ANOMALY>30.5742</MEAN_ANOMALY></meanElements><tleParameters><EPHEMERIS_TYPE>0</EPHEMERIS_TYPE><CLASSIFICATION_TYPE>U</CLASSIFICATION_TYPE><NORAD_CAT_ID>64524</NORAD_CAT_ID><ELEMENT_SET_NO>999</ELEMENT_SET_NO><REV_AT_EPOCH>853</REV_AT_EPOCH><BSTAR>-.26066E-1</BSTAR><MEAN_MOTION_DOT>-.718937E-2</MEAN_MOTION_DOT><MEAN_MOTION_DDOT>0</MEAN_MOTION_DDOT></tleParameters></data></segment></body></omm>
<omm id="CCSDS_OMM_VERS" version="2.0">
<header><CREATION_DATE/><ORIGINATOR/></header><body><segment><metadata><OBJECT_NAME>KUIPER-00065</OBJECT_NAME><OBJECT_ID>2025-134AB</OBJECT_ID><CENTER_NAME>EARTH</CENTER_NAME><REF_FRAME>TEME</REF_FRAME><TIME_SYSTEM>UTC</TIME_SYSTEM><MEAN_ELEMENT_THEORY>SGP4</MEAN_ELEMENT_THEORY></metadata><data><meanElements><EPOCH>2025-08-10T22:00:01.999584</EPOCH><MEAN_MOTION>15.16894202</MEAN_MOTION><ECCENTRICITY>.0007659</ECCENTRICITY><INCLINATION>51.8821</INCLINATION><RA_OF_ASC_NODE>98.4778</RA_OF_ASC_NODE><ARG_OF_PERICENTER>302.6046</ARG_OF_PERICENTER><MEAN_ANOMALY>21.2502</MEAN_ANOMALY></meanElements><tleParameters><EPHEMERIS_TYPE>0</EPHEMERIS_TYPE><CLASSIFICATION_TYPE>U</CLASSIFICATION_TYPE><NORAD_CAT_ID>64525</NORAD_CAT_ID><ELEMENT_SET_NO>999</ELEMENT_SET_NO><REV_AT_EPOCH>845</REV_AT_EPOCH><BSTAR>-.15995E-2</BSTAR><MEAN_MOTION_DOT>-.32118E-3</MEAN_MOTION_DOT><MEAN_MOTION_DDOT>0</MEAN_MOTION_DDOT></tleParameters></data></segment></body></omm>
<omm id="CCSDS_OMM_VERS" version="2.0">
<header><CREATION_DATE/><ORIGINATOR/></header><body><segment><metadata><OBJECT_NAME>KUIPER-00066</OBJECT_NAME><OBJECT_ID>2025-134AC</OBJECT_ID><CENTER_NAME>EARTH</CENTER_NAME><REF_FRAME>TEME</REF_FRAME><TIME_SYSTEM>UTC</TIME_SYSTEM><MEAN_ELEMENT_THEORY>SGP4</MEAN_ELEMENT_THEORY></metadata><data><meanElements><EPOCH>2025-08-11T06:00:02.000160</EPOCH><MEAN_MOTION>15.30053420</MEAN_MOTION><ECCENTRICITY>.0001371</ECCENTRICITY><INCLINATION>51.8806</INCLINATION><RA_OF_ASC_NODE>95.5369</RA_OF_ASC_NODE><ARG_OF_PERICENTER>241.5873</ARG_OF_PERICENTER><MEAN_ANOMALY>110.1420</MEAN_ANOMALY></meanElements><tleParameters><EPHEMERIS_TYPE>0</EPHEMERIS_TYPE><CLASSIFICATION_TYPE>U</CLASSIFICATION_TYPE><NORAD_CAT_ID>64526</NORAD_CAT_ID><ELEMENT_SET_NO>999</ELEMENT_SET_NO><REV_AT_EPOCH>828</REV_AT_EPOCH><BSTAR>-.2413E-1</BSTAR><MEAN_MOTION_DOT>-.661232E-2</MEAN_MOTION_DOT><MEAN_MOTION_DDOT>0</MEAN_MOTION_DDOT></tleParameters></data></segment></body></omm>
<omm id="CCSDS_OMM_VERS" version="2.0">
<header><CREATION_DATE/><ORIGINATOR/></header><body><segment><metadata><OBJECT_NAME>KUIPER-00069</OBJECT_NAME><OBJECT_ID>2025-151A</OBJECT_ID><CENTER_NAME>EARTH</CENTER_NAME><REF_FRAME>TEME</REF_FRAME><TIME_SYSTEM>UTC</TIME_SYSTEM><MEAN_ELEMENT_THEORY>SGP4</MEAN_ELEMENT_THEORY></metadata><data><meanElements><EPOCH>2025-08-10T10:48:57.772224</EPOCH><MEAN_MOTION>15.35967401</MEAN_MOTION><ECCENTRICITY>.0004892</ECCENTRICITY><INCLINATION>51.8788</INCLINATION><RA_OF_ASC_NODE>166.1529</RA_OF_ASC_NODE><ARG_OF_PERICENTER>225.0366</ARG_OF_PERICENTER><MEAN_ANOMALY>135.0224</MEAN_ANOMALY></meanElements><tleParameters><EPHEMERIS_TYPE>0</EPHEMERIS_TYPE><CLASSIFICATION_TYPE>U</CLASSIFICATION_TYPE><NORAD_CAT_ID>64816</NORAD_CAT_ID><ELEMENT_SET_NO>999</ELEMENT_SET_NO><REV_AT_EPOCH>504</REV_AT_EPOCH><BSTAR>.69706E-3</BSTAR><MEAN_MOTION_DOT>.24487E-3</MEAN_MOTION_DOT><MEAN_MOTION_DDOT>0</MEAN_MOTION_DDOT></tleParameters></data></segment></body></omm>
<omm id="CCSDS_OMM_VERS" version="2.0">
<header><CREATION_DATE/><ORIGINATOR/></header><body><segment><metadata><OBJECT_NAME>KUIPER-00070</OBJECT_NAME><OBJECT_ID>2025-151B</OBJECT_ID><CENTER_NAME>EARTH</CENTER_NAME><REF_FRAME>TEME</REF_FRAME><TIME_SYSTEM>UTC</TIME_SYSTEM><MEAN_ELEMENT_THEORY>SGP4</MEAN_ELEMENT_THEORY></metadata><data><meanElements><EPOCH>2025-08-11T04:00:01.999584</EPOCH><MEAN_MOTION>15.22691653</MEAN_MOTION><ECCENTRICITY>.0006375</ECCENTRICITY><INCLINATION>51.8862</INCLINATION><RA_OF_ASC_NODE>163.5073</RA_OF_ASC_NODE><ARG_OF_PERICENTER>265.4158</ARG_OF_PERICENTER><MEAN_ANOMALY>82.1994</MEAN_ANOMALY></meanElements><tleParameters><EPHEMERIS_TYPE>0</EPHEMERIS_TYPE><CLASSIFICATION_TYPE>U</CLASSIFICATION_TYPE><NORAD_CAT_ID>64817</NORAD_CAT_ID><ELEMENT_SET_NO>999</ELEMENT_SET_NO><REV_AT_EPOCH>513</REV_AT_EPOCH><BSTAR>-.32043E-1</BSTAR><MEAN_MOTION_DOT>-.707595E-2</MEAN_MOTION_DOT><MEAN_MOTION_DDOT>0</MEAN_MOTION_DDOT></tleParameters></data></segment></body></omm>

</ndm>
